{
  "type": "FeatureCollection",
  "features": [
    {
      "type": "Feature",
      "properties": {
        "norad_id": 38709,
        "name": "EXACTVIEW-1 (ADS-1B)",
        "group": "resource",
        "lat": 69.34330913815019,
        "lon": -68.12457311969901,
        "alt_km": 802.3466667015173,
        "timestamp": "2025-12-04T21:36:15.531207+00:00",
        "meta_object_name": "EXACTVIEW-1 (ADS-1B)",
        "meta_object_id": "2012-039C",
        "meta_epoch": "2025-12-04T14:21:21.312576",
        "meta_mean_motion": 14.24902764,
        "meta_eccentricity": 0.00110976,
        "meta_inclination": 98.9636,
        "meta_ra_of_asc_node": 86.8176,
        "meta_arg_of_pericenter": 17.3472,
        "meta_mean_anomaly": 342.8083,
        "meta_ephemeris_type": 0,
        "meta_classification_type": "U",
        "meta_norad_cat_id": 38709,
        "meta_element_set_no": 999,
        "meta_rev_at_epoch": 69499,
        "meta_bstar": 0.00016019552,
        "meta_mean_motion_dot": 3.28e-06,
        "meta_mean_motion_ddot": 0,
        "tle_line1": "1 38709U 12039C   25338.59816334  .00000328  00000+0  16020-3 0  9996",
        "tle_line2": "2 38709  98.9636  86.8176 0011097  17.3472 342.8083 14.24902764694992"
      },
      "geometry": {
        "type": "Point",
        "coordinates": [
          -68.12457311969901,
          69.34330913815019
        ]
      }
    },
    {
      "type": "Feature",
      "properties": {
        "norad_id": 38755,
        "name": "SPOT 6",
        "group": "resource",
        "lat": -81.5519436946145,
        "lon": 148.84263544532155,
        "alt_km": 705.8009183619151,
        "timestamp": "2025-12-04T21:36:15.531217+00:00",
        "meta_object_name": "SPOT 6",
        "meta_object_id": "2012-047A",
        "meta_epoch": "2025-12-04T15:26:27.346848",
        "meta_mean_motion": 14.58591586,
        "meta_eccentricity": 0.00010541,
        "meta_inclination": 98.1583,
        "meta_ra_of_asc_node": 43.5765,
        "meta_arg_of_pericenter": 100.8298,
        "meta_mean_anomaly": 259.302,
        "meta_ephemeris_type": 0,
        "meta_classification_type": "U",
        "meta_norad_cat_id": 38755,
        "meta_element_set_no": 999,
        "meta_rev_at_epoch": 70469,
        "meta_bstar": 0.00019077138,
        "meta_mean_motion_dot": 8.42e-06,
        "meta_mean_motion_ddot": 0,
        "tle_line1": "1 38755U 12047A   25338.64337207  .00000842  00000+0  19077-3 0  9995",
        "tle_line2": "2 38755  98.1583  43.5765 0001054 100.8298 259.3020 14.58591586704691"
      },
      "geometry": {
        "type": "Point",
        "coordinates": [
          148.84263544532155,
          -81.5519436946145
        ]
      }
    },
    {
      "type": "Feature",
      "properties": {
        "norad_id": 39019,
        "name": "PLEIADES 1B",
        "group": "resource",
        "lat": 11.966482351821902,
        "lon": -126.57750391403097,
        "alt_km": 699.0497441897942,
        "timestamp": "2025-12-04T21:36:15.531227+00:00",
        "meta_object_name": "PLEIADES 1B",
        "meta_object_id": "2012-068A",
        "meta_epoch": "2025-12-04T15:53:53.600352",
        "meta_mean_motion": 14.58540955,
        "meta_eccentricity": 0.00012443,
        "meta_inclination": 98.1804,
        "meta_ra_of_asc_node": 51.4414,
        "meta_arg_of_pericenter": 87.4728,
        "meta_mean_anomaly": 272.6614,
        "meta_ephemeris_type": 0,
        "meta_classification_type": "U",
        "meta_norad_cat_id": 39019,
        "meta_element_set_no": 999,
        "meta_rev_at_epoch": 69249,
        "meta_bstar": 0.00019599181,
        "meta_mean_motion_dot": 8.65e-06,
        "meta_mean_motion_ddot": 0,
        "tle_line1": "1 39019U 12068A   25338.66242593  .00000865  00000+0  19599-3 0  9991",
        "tle_line2": "2 39019  98.1804  51.4414 0001244  87.4728 272.6614 14.58540955692494"
      },
      "geometry": {
        "type": "Point",
        "coordinates": [
          -126.57750391403097,
          11.966482351821902
        ]
      }
    },
    {
      "type": "Feature",
      "properties": {
        "norad_id": 39030,
        "name": "GOKTURK 2",
        "group": "resource",
        "lat": -82.10239554288407,
        "lon": -102.15052444773379,
        "alt_km": 652.2113288247183,
        "timestamp": "2025-12-04T21:36:15.531237+00:00",
        "meta_object_name": "GOKTURK 2",
        "meta_object_id": "2012-073A",
        "meta_epoch": "2025-12-04T15:29:33.156096",
        "meta_mean_motion": 14.75274093,
        "meta_eccentricity": 8.138e-05,
        "meta_inclination": 97.6898,
        "meta_ra_of_asc_node": 180.697,
        "meta_arg_of_pericenter": 97.9269,
        "meta_mean_anomaly": 262.2033,
        "meta_ephemeris_type": 0,
        "meta_classification_type": "U",
        "meta_norad_cat_id": 39030,
        "meta_element_set_no": 999,
        "meta_rev_at_epoch": 69582,
        "meta_bstar": 0.00019293896,
        "meta_mean_motion_dot": 1.259e-05,
        "meta_mean_motion_ddot": 0,
        "tle_line1": "1 39030U 12073A   25338.64552264  .00001259  00000+0  19294-3 0  9997",
        "tle_line2": "2 39030  97.6898 180.6970 0000813  97.9269 262.2033 14.75274093695829"
      },
      "geometry": {
        "type": "Point",
        "coordinates": [
          -102.15052444773379,
          -82.10239554288407
        ]
      }
    },
    {
      "type": "Feature",
      "properties": {
        "norad_id": 39084,
        "name": "LANDSAT 8",
        "group": "resource",
        "lat": 18.034824606239354,
        "lon": 44.39530174692098,
        "alt_km": 702.566662987937,
        "timestamp": "2025-12-04T21:36:15.531247+00:00",
        "meta_object_name": "LANDSAT 8",
        "meta_object_id": "2013-008A",
        "meta_epoch": "2025-12-04T14:55:42.959136",
        "meta_mean_motion": 14.57102636,
        "meta_eccentricity": 0.00011633,
        "meta_inclination": 98.2083,
        "meta_ra_of_asc_node": 46.815,
        "meta_arg_of_pericenter": 84.5934,
        "meta_mean_anomaly": 275.5397,
        "meta_ephemeris_type": 0,
        "meta_classification_type": "U",
        "meta_norad_cat_id": 39084,
        "meta_element_set_no": 999,
        "meta_rev_at_epoch": 66956,
        "meta_bstar": 0.00028570818,
        "meta_mean_motion_dot": 1.242e-05,
        "meta_mean_motion_ddot": 0,
        "tle_line1": "1 39084U 13008A   25338.62202499  .00001242  00000+0  28571-3 0  9995",
        "tle_line2": "2 39084  98.2083  46.8150 0001163  84.5934 275.5397 14.57102636669569"
      },
      "geometry": {
        "type": "Point",
        "coordinates": [
          44.39530174692098,
          18.034824606239354
        ]
      }
    },
    {
      "type": "Feature",
      "properties": {
        "norad_id": 39086,
        "name": "SARAL",
        "group": "resource",
        "lat": -29.57537746770496,
        "lon": 167.83076867984,
        "alt_km": 790.1329306539428,
        "timestamp": "2025-12-04T21:36:15.531257+00:00",
        "meta_object_name": "SARAL",
        "meta_object_id": "2013-009A",
        "meta_epoch": "2025-12-04T15:02:22.525440",
        "meta_mean_motion": 14.32752755,
        "meta_eccentricity": 0.00026687,
        "meta_inclination": 98.5506,
        "meta_ra_of_asc_node": 162.6629,
        "meta_arg_of_pericenter": 124.2602,
        "meta_mean_anomaly": 235.8836,
        "meta_ephemeris_type": 0,
        "meta_classification_type": "U",
        "meta_norad_cat_id": 39086,
        "meta_element_set_no": 999,
        "meta_rev_at_epoch": 66774,
        "meta_bstar": 0.00012000982,
        "meta_mean_motion_dot": 2.83e-06,
        "meta_mean_motion_ddot": 0,
        "tle_line1": "1 39086U 13009A   25338.62664960  .00000283  00000+0  12001-3 0  9998",
        "tle_line2": "2 39086  98.5506 162.6629 0002668 124.2602 235.8836 14.32752755667748"
      },
      "geometry": {
        "type": "Point",
        "coordinates": [
          167.83076867984,
          -29.57537746770496
        ]
      }
    },
    {
      "type": "Feature",
      "properties": {
        "norad_id": 39150,
        "name": "GAOFEN-1",
        "group": "resource",
        "lat": -44.737541124654676,
        "lon": 57.64038115329075,
        "alt_km": 657.5451616895998,
        "timestamp": "2025-12-04T21:36:15.531293+00:00",
        "meta_object_name": "GAOFEN-1",
        "meta_object_id": "2013-018A",
        "meta_epoch": "2025-12-04T15:18:14.369184",
        "meta_mean_motion": 14.76512118,
        "meta_eccentricity": 0.00177327,
        "meta_inclination": 97.9336,
        "meta_ra_of_asc_node": 49.4399,
        "meta_arg_of_pericenter": 168.4108,
        "meta_mean_anomaly": 191.7514,
        "meta_ephemeris_type": 0,
        "meta_classification_type": "U",
        "meta_norad_cat_id": 39150,
        "meta_element_set_no": 999,
        "meta_rev_at_epoch": 67953,
        "meta_bstar": 0.0002386025,
        "meta_mean_motion_dot": 1.615e-05,
        "meta_mean_motion_ddot": 0,
        "tle_line1": "1 39150U 13018A   25338.63766631  .00001615  00000+0  23860-3 0  9994",
        "tle_line2": "2 39150  97.9336  49.4399 0017732 168.4108 191.7514 14.76512118679537"
      },
      "geometry": {
        "type": "Point",
        "coordinates": [
          57.64038115329075,
          -44.737541124654676
        ]
      }
    }
  ]
}